{
  "norad_id": 60429,
  "name": "STARLINK-32242",
  "history": [
    {
      "epoch": "2026-03-28T19:18:45.133920Z",
      "apogee_km": 475.89915588226086,
      "perigee_km": 474.54465802789036,
      "latitude_deg": -2.0262952625340773e-05,
      "longitude_deg": 12.587053294306298,
      "height_km": 475.9742179644839,
      "semi_major_axis_km": 6853.358906955075,
      "eccentricity": 9.882e-05,
      "inclination_deg": 53.16,
      "raan_deg": 128.495,
      "arg_perigee_deg": 77.5349,
      "mean_anomaly_deg": 282.5762,
      "mean_motion_rev_day": 15.3019771
    },
    {
      "epoch": "2026-03-29T09:25:14.070144Z",
      "apogee_km": 475.9420126577452,
      "perigee_km": 474.51514194455103,
      "latitude_deg": 1.0610867864914157e-05,
      "longitude_deg": 157.6564122938295,
      "height_km": 475.9209231991422,
      "semi_major_axis_km": 6853.365577301148,
      "eccentricity": 0.0001041,
      "inclination_deg": 53.1599,
      "raan_deg": 125.7643,
      "arg_perigee_deg": 73.2098,
      "mean_anomaly_deg": 286.9017,
      "mean_motion_rev_day": 15.30195476
    },
    {
      "epoch": "2026-03-30T12:04:08.429376Z",
      "apogee_km": 476.03623775962933,
      "perigee_km": 474.423914621284,
      "latitude_deg": 1.1253581914911526e-06,
      "longitude_deg": 111.67859705655042,
      "height_km": 475.94640071736075,
      "semi_major_axis_km": 6853.367076190456,
      "eccentricity": 0.00011763,
      "inclination_deg": 53.1598,
      "raan_deg": 120.6074,
      "arg_perigee_deg": 76.9597,
      "mean_anomaly_deg": 283.1535,
      "mean_motion_rev_day": 15.30194974
    },
    {
      "epoch": "2026-03-31T08:26:49.934976Z",
      "apogee_km": 476.07725672920606,
      "perigee_km": 474.3829673117725,
      "latitude_deg": -1.7257353894251927e-05,
      "longitude_deg": 161.22434165778174,
      "height_km": 475.88260853344445,
      "semi_major_axis_km": 6853.367112020489,
      "eccentricity": 0.00012361,
      "inclination_deg": 53.1603,
      "raan_deg": 116.663,
      "arg_perigee_deg": 73.1376,
      "mean_anomaly_deg": 286.976,
      "mean_motion_rev_day": 15.30194962
    },
    {
      "epoch": "2026-04-01T07:57:38.115360Z",
      "apogee_km": 476.13257508489824,
      "perigee_km": 474.34384415518707,
      "latitude_deg": -1.0907381513977381e-05,
      "longitude_deg": 163.0071357627903,
      "height_km": 475.8843133006247,
      "semi_major_axis_km": 6853.375209620042,
      "eccentricity": 0.0001305,
      "inclination_deg": 53.1602,
      "raan_deg": 112.1122,
      "arg_perigee_deg": 73.6331,
      "mean_anomaly_deg": 286.4813,
      "mean_motion_rev_day": 15.3019225
    },
    {
      "epoch": "2026-04-02T18:26:48.736032Z",
      "apogee_km": 476.0846469724838,
      "perigee_km": 474.425440758665,
      "latitude_deg": 4.977826314701869e-06,
      "longitude_deg": -2.3794051793727937,
      "height_km": 475.9698264827647,
      "semi_major_axis_km": 6853.392043865574,
      "eccentricity": 0.00012105,
      "inclination_deg": 53.159,
      "raan_deg": 105.4362,
      "arg_perigee_deg": 77.2349,
      "mean_anomaly_deg": 282.8787,
      "mean_motion_rev_day": 15.30186612
    },
    {
      "epoch": "2026-04-03T05:25:12.101664Z",
      "apogee_km": 476.34417704909265,
      "perigee_km": 474.2072829598774,
      "latitude_deg": -9.965059471520745e-06,
      "longitude_deg": -169.54902451760486,
      "height_km": 476.2306672011562,
      "semi_major_axis_km": 6853.412730004485,
      "eccentricity": 0.0001559,
      "inclination_deg": 53.1604,
      "raan_deg": 103.3146,
      "arg_perigee_deg": 93.0702,
      "mean_anomaly_deg": 267.0477,
      "mean_motion_rev_day": 15.30179684
    },
    {
      "epoch": "2026-04-04T09:38:08.125152Z",
      "apogee_km": 476.24658860849195,
      "perigee_km": 474.16481722905337,
      "latitude_deg": 2.5678724989919414e-05,
      "longitude_deg": 120.59819843854692,
      "height_km": 476.2217181614647,
      "semi_major_axis_km": 6853.342702918772,
      "eccentricity": 0.00015188,
      "inclination_deg": 53.1609,
      "raan_deg": 97.854,
      "arg_perigee_deg": 96.5193,
      "mean_anomaly_deg": 263.5981,
      "mean_motion_rev_day": 15.30203137
    },
    {
      "epoch": "2026-04-05T07:34:53.887872Z",
      "apogee_km": 476.1201763764684,
      "perigee_km": 474.3972326963485,
      "latitude_deg": -2.6348811465102174e-05,
      "longitude_deg": 146.25728849148632,
      "height_km": 476.09172991073245,
      "semi_major_axis_km": 6853.395704536409,
      "eccentricity": 0.0001257,
      "inclination_deg": 53.16,
      "raan_deg": 93.6051,
      "arg_perigee_deg": 85.668,
      "mean_anomaly_deg": 274.4464,
      "mean_motion_rev_day": 15.30185386
    },
    {
      "epoch": "2026-04-06T05:31:37.899264Z",
      "apogee_km": 475.99784794076186,
      "perigee_km": 474.4328164021881,
      "latitude_deg": -3.10318525730208e-06,
      "longitude_deg": 171.9277511424276,
      "height_km": 475.96175050335137,
      "semi_major_axis_km": 6853.352332171475,
      "eccentricity": 0.00011418,
      "inclination_deg": 53.1605,
      "raan_deg": 89.3602,
      "arg_perigee_deg": 78.8055,
      "mean_anomaly_deg": 281.3074,
      "mean_motion_rev_day": 15.30199912
    },
    {
      "epoch": "2026-04-07T03:28:22.845504Z",
      "apogee_km": 476.02979841394335,
      "perigee_km": 474.4632520077521,
      "latitude_deg": 2.5611094916264382e-05,
      "longitude_deg": -162.40868853466029,
      "height_km": 476.1396181044377,
      "semi_major_axis_km": 6853.383525210847,
      "eccentricity": 0.00011429,
      "inclination_deg": 53.1603,
      "raan_deg": 85.1123,
      "arg_perigee_deg": 89.6211,
      "mean_anomaly_deg": 270.4921,
      "mean_motion_rev_day": 15.30189465
    },
    {
      "epoch": "2026-04-08T15:31:36.159456Z",
      "apogee_km": 476.16698663731495,
      "perigee_km": 474.30821437816485,
      "latitude_deg": -5.562169399652675e-06,
      "longitude_deg": 8.326736158201157,
      "height_km": 476.11127113890706,
      "semi_major_axis_km": 6853.374600507739,
      "eccentricity": 0.00013561,
      "inclination_deg": 53.1611,
      "raan_deg": 78.1339,
      "arg_perigee_deg": 88.4954,
      "mean_anomaly_deg": 271.6202,
      "mean_motion_rev_day": 15.30192454
    },
    {
      "epoch": "2026-04-09T21:18:37.032768Z",
      "apogee_km": 476.08834021398525,
      "perigee_km": 474.37910955519965,
      "latitude_deg": -5.001232967560823e-05,
      "longitude_deg": -85.41480743071308,
      "height_km": 476.12783703439936,
      "semi_major_axis_km": 6853.370724884592,
      "eccentricity": 0.0001247,
      "inclination_deg": 53.1608,
      "raan_deg": 72.3692,
      "arg_perigee_deg": 89.7261,
      "mean_anomaly_deg": 270.3882,
      "mean_motion_rev_day": 15.30193752
    },
    {
      "epoch": "2026-04-10T05:08:52.597824Z",
      "apogee_km": 476.00217205348054,
      "perigee_km": 474.4372765790504,
      "latitude_deg": 5.9609361573404245e-05,
      "longitude_deg": 155.18283786929274,
      "height_km": 476.1713163959108,
      "semi_major_axis_km": 6853.356724316265,
      "eccentricity": 0.00011417,
      "inclination_deg": 53.1601,
      "raan_deg": 70.8535,
      "arg_perigee_deg": 93.9088,
      "mean_anomaly_deg": 266.2044,
      "mean_motion_rev_day": 15.30198441
    },
    {
      "epoch": "2026-04-11T14:04:00.067296Z",
      "apogee_km": 476.1398330754246,
      "perigee_km": 474.3305428178055,
      "latitude_deg": -1.0758053525006746e-05,
      "longitude_deg": 13.678635181419944,
      "height_km": 476.0383235932302,
      "semi_major_axis_km": 6853.372187946615,
      "eccentricity": 0.000132,
      "inclination_deg": 53.1613,
      "raan_deg": 64.4824,
      "arg_perigee_deg": 83.9707,
      "mean_anomaly_deg": 276.1444,
      "mean_motion_rev_day": 15.30193262
    },
    {
      "epoch": "2026-04-13T06:49:22.890144Z",
      "apogee_km": 476.12931841935097,
      "perigee_km": 474.3253758558985,
      "latitude_deg": -4.917891998400605e-05,
      "longitude_deg": 112.77030697611494,
      "height_km": 475.8980339276945,
      "semi_major_axis_km": 6853.3643471376245,
      "eccentricity": 0.00013161,
      "inclination_deg": 53.1611,
      "raan_deg": 56.593,
      "arg_perigee_deg": 75.39,
      "mean_anomaly_deg": 284.7246,
      "mean_motion_rev_day": 15.30195888
    },
    {
      "epoch": "2026-04-14T20:26:39.790752Z",
      "apogee_km": 476.2434309383725,
      "perigee_km": 474.2230573903935,
      "latitude_deg": 5.633816514799713e-06,
      "longitude_deg": -100.37662408760326,
      "height_km": 476.03999117119645,
      "semi_major_axis_km": 6853.370244164383,
      "eccentricity": 0.0001474,
      "inclination_deg": 53.1614,
      "raan_deg": 49.3115,
      "arg_perigee_deg": 84.8201,
      "mean_anomaly_deg": 275.2968,
      "mean_motion_rev_day": 15.30193913
    },
    {
      "epoch": "2026-04-15T13:41:15.076032Z",
      "apogee_km": 476.2129015262826,
      "perigee_km": 474.2761359090937,
      "latitude_deg": 3.12411792549446e-05,
      "longitude_deg": -3.066676027469788,
      "height_km": 476.034760730763,
      "semi_major_axis_km": 6853.381518717688,
      "eccentricity": 0.0001413,
      "inclination_deg": 53.1609,
      "raan_deg": 45.9766,
      "arg_perigee_deg": 83.6123,
      "mean_anomaly_deg": 276.5039,
      "mean_motion_rev_day": 15.30190137
    },
    {
      "epoch": "2026-04-16T13:12:02.848608Z",
      "apogee_km": 476.20835783850725,
      "perigee_km": 474.26200013967355,
      "latitude_deg": 3.574993653859071e-05,
      "longitude_deg": -1.2821788608286846,
      "height_km": 476.0326497453755,
      "semi_major_axis_km": 6853.37217898909,
      "eccentricity": 0.000142,
      "inclination_deg": 53.1612,
      "raan_deg": 41.4258,
      "arg_perigee_deg": 84.0707,
      "mean_anomaly_deg": 276.0456,
      "mean_motion_rev_day": 15.30193265
    }
  ]
}